IRIDIUM 57              
1 25273U 98019B   24341.95901860  .00000874  00000+0  29641-3 0  9991
2 25273  86.3985 225.7253 0002094  80.9335 279.2098 14.35623176397205
IRIDIUM 63              
1 25286U 98021B   24341.91262880  .00001031  00000+0  34694-3 0  9996
2 25286  86.3997 162.7388 0002007  93.3915 266.7512 14.36230418396246
IRIDIUM 69              
1 25319U 98026A   24341.88524578  .00000996  00000+0  30679-3 0  9997
2 25319  86.4000 176.6013 0001212 357.3997   2.7196 14.40572912395370
IRIDIUM 71              
1 25320U 98026B   24341.85083575  .00001089  00000+0  33406-3 0  9998
2 25320  86.3995 171.3480 0003047  43.0154 317.1283 14.40812053395896
IRIDIUM 73              
1 25344U 98032C   24341.86117977  .00001820  00000+0  45348-3 0  9997
2 25344  86.4411 128.4895 0001395  81.1685 278.9678 14.51211381402660
IRIDIUM 82              
1 25467U 98051A   24341.59125661  .00024286  00000+0  96970-3 0  9991
2 25467  86.3743 203.4342 0105805 303.4580  55.6581 15.19902993394584
